[{"OBJECT_NAME":"FUNCUBE-1 (AO-73)","OBJECT_ID":"2013-066AE","EPOCH":"2026-03-09T21:45:20.354112","MEAN_MOTION":15.07917828,"ECCENTRICITY":0.00373117,"INCLINATION":97.8195,"RA_OF_ASC_NODE":38.4486,"ARG_OF_PERICENTER":178.1154,"MEAN_ANOMALY":182.0221,"EPHEMERIS_TYPE":0,"CLASSIFICATION_TYPE":"U","NORAD_CAT_ID":39444,"ELEMENT_SET_NO":999,"REV_AT_EPOCH":66469,"BSTAR":0.00061714882,"MEAN_MOTION_DOT":9.564e-5,"MEAN_MOTION_DDOT":0},{"OBJECT_NAME":"STARLINK-34690","OBJECT_ID":"2025-152X","EPOCH":"2026-03-09T13:45:52.955712","MEAN_MOTION":15.0565091,"ECCENTRICITY":0.0002429,"INCLINATION":97.6023,"RA_OF_ASC_NODE":285.4597,"ARG_OF_PERICENTER":72.7737,"MEAN_ANOMALY":287.3755,"EPHEMERIS_TYPE":0,"CLASSIFICATION_TYPE":"U","NORAD_CAT_ID":64863,"ELEMENT_SET_NO":999,"REV_AT_EPOCH":3540,"BSTAR":0.00022893,"MEAN_MOTION_DOT":3.244e-5,"MEAN_MOTION_DDOT":0}]
